{"type": "FeatureCollection", "features": [ {"type": "Feature", "properties": {"norad_id": 58655, "name": "BEIDOU-3 M26 (C48)", "group": "beidou", "lat": 1.5461533121042788, "lon": 69.81862009477402, "alt_km": 21531.396068057227, "timestamp": "2025-12-07T22:37:43.345284+00:00", "meta": {"OBJECT_NAME": "BEIDOU-3 M26 (C48)", "OBJECT_ID": "2023-207B", "EPOCH": "2025-12-06T07:54:02.813472", "MEAN_MOTION": 1.86231106, "ECCENTRICITY": 0.00035957, "INCLINATION": 55.5812, "RA_OF_ASC_NODE": 68.8048, "ARG_OF_PERICENTER": 252.9675, "MEAN_ANOMALY": 107.0074, "EPHEMERIS_TYPE": 0, "CLASSIFICATION_TYPE": "U", "NORAD_CAT_ID": 58655, "ELEMENT_SET_NO": 999, "REV_AT_EPOCH": 1323, "BSTAR": 0, "MEAN_MOTION_DOT": -4.8e-07, "MEAN_MOTION_DDOT": 0}, "tle": {"line1": "1 58655U 23207B   25340.32919923 -.00000048  00000+0  00000+0 0  9996", "line2": "2 58655  55.5812  68.8048 0003595 252.9675 107.0074  1.86231106 13235"}}, "geometry": {"type": "Point", "coordinates": [69.81862009477402, 1.5461533121042788]}}, {"type": "Feature", "properties": {"norad_id": 61186, "name": "BEIDOU-3 M25 (C47)", "group": "beidou", "lat": 45.60904522778987, "lon": 82.4222152579057, "alt_km": 21537.928469529325, "timestamp": "2025-12-07T22:37:43.345295+00:00", "meta": {"OBJECT_NAME": "BEIDOU-3 M25 (C47)", "OBJECT_ID": "2024-168B", "EPOCH": "2025-12-07T05:53:04.008192", "MEAN_MOTION": 1.86229774, "ECCENTRICITY": 0.00054576, "INCLINATION": 54.6469, "RA_OF_ASC_NODE": 308.9099, "ARG_OF_PERICENTER": 295.3065, "MEAN_ANOMALY": 75.7113, "EPHEMERIS_TYPE": 0, "CLASSIFICATION_TYPE": "U", "NORAD_CAT_ID": 61186, "ELEMENT_SET_NO": 999, "REV_AT_EPOCH": 821, "BSTAR": 0, "MEAN_MOTION_DOT": -7.1e-07, "MEAN_MOTION_DDOT": 0}, "tle": {"line1": "1 61186U 24168B   25341.24518528 -.00000071  00000+0  00000+0 0  9990", "line2": "2 61186  54.6469 308.9099 0005457 295.3065  75.7113  1.86229774  8218"}}, "geometry": {"type": "Point", "coordinates": [82.4222152579057, 45.60904522778987]}}, {"type": "Feature", "properties": {"norad_id": 61187, "name": "BEIDOU-3 M27 (C49)", "group": "beidou", "lat": -51.52701942377299, "lon": -167.9116118691314, "alt_km": 21532.51945686591, "timestamp": "2025-12-07T22:37:43.345306+00:00", "meta": {"OBJECT_NAME": "BEIDOU-3 M27 (C49)", "OBJECT_ID": "2024-168C", "EPOCH": "2025-12-07T02:45:45.916992", "MEAN_MOTION": 1.86229917, "ECCENTRICITY": 0.00022869, "INCLINATION": 54.6424, "RA_OF_ASC_NODE": 308.8981, "ARG_OF_PERICENTER": 332.2687, "MEAN_ANOMALY": 86.4832, "EPHEMERIS_TYPE": 0, "CLASSIFICATION_TYPE": "U", "NORAD_CAT_ID": 61187, "ELEMENT_SET_NO": 999, "REV_AT_EPOCH": 568, "BSTAR": 0, "MEAN_MOTION_DOT": -7.1e-07, "MEAN_MOTION_DDOT": 0}, "tle": {"line1": "1 61187U 24168C   25341.11511478 -.00000071  00000+0  00000+0 0  9994", "line2": "2 61187  54.6424 308.8981 0002286 332.2687  86.4832  1.86229917  5681"}}, "geometry": {"type": "Point", "coordinates": [-167.9116118691314, -51.52701942377299]}}]}